start=new Date('2021-11-27T00:00:00.000Z').valueOf();
sats=[{"DECAY_DATE":null,"OBJECT_ID":"2020-019AG","REV_AT_EPOCH":"9427","MEAN_MOTION":"15.06398360","TLE_LINE2":"2 45390  53.0559 327.6936 0001347  80.2989 279.8153 15.06398360 94275","OBJECT_NAME":"STARLINK-1284","LAUNCH_DATE":"2020-03-18","FILE":"3224952","RA_OF_ASC_NODE":"327.6936","MEAN_ELEMENT_THEORY":"SGP4","RCS_SIZE":"LARGE","TLE_LINE1":"1 45390U 20019AG  21330.69087231 -.00000411  00000-0 -86707-5 0  9999","SITE":"AFETR","GP_ID":"190558436","MEAN_ANOMALY":"279.8153","EPOCH":"2021-11-26T16:34:51.367584","CLASSIFICATION_TYPE":"U","MEAN_MOTION_DDOT":"0.0000000000000","COUNTRY_CODE":"US","BSTAR":"-0.00000867070000","ECCENTRICITY":"0.00013470","EPHEMERIS_TYPE":"0","SEMIMAJOR_AXIS":"6925.354","OBJECT_TYPE":"PAYLOAD","MEAN_MOTION_DOT":"-0.00000411","CENTER_NAME":"EARTH","ELEMENT_SET_NO":"999","APOAPSIS":"548.151","TIME_SYSTEM":"UTC","ARG_OF_PERICENTER":"80.2989","REF_FRAME":"TEME","INCLINATION":"53.0559","NORAD_CAT_ID":"45390","PERIAPSIS":"546.286","PERIOD":"95.592"},{"EPOCH":"2021-11-26T16:56:05.498016","CLASSIFICATION_TYPE":"U","MEAN_MOTION_DDOT":"0.0000000000000","COUNTRY_CODE":"US","BSTAR":"0.00007997700000","GP_ID":"190557184","MEAN_ANOMALY":"289.1878","FILE":"3224952","LAUNCH_DATE":"2020-03-18","RA_OF_ASC_NODE":"327.6198","MEAN_ELEMENT_THEORY":"SGP4","RCS_SIZE":"LARGE","TLE_LINE1":"1 45391U 20019AH  21330.70561919  .00000910  00000-0  79977-4 0  9994","SITE":"AFETR","DECAY_DATE":null,"REV_AT_EPOCH":"9400","OBJECT_ID":"2020-019AH","MEAN_MOTION":"15.06396369","TLE_LINE2":"2 45391  53.0557 327.6198 0001443  70.9267 289.1878 15.06396369 94002","OBJECT_NAME":"STARLINK-1289","INCLINATION":"53.0557","NORAD_CAT_ID":"45391","PERIAPSIS":"546.225","PERIOD":"95.592","ELEMENT_SET_NO":"999","APOAPSIS":"548.224","TIME_SYSTEM":"UTC","ARG_OF_PERICENTER":"70.9267","REF_FRAME":"TEME","OBJECT_TYPE":"PAYLOAD","MEAN_MOTION_DOT":"0.00000910","CENTER_NAME":"EARTH","ECCENTRICITY":"0.00014430","EPHEMERIS_TYPE":"0","SEMIMAJOR_AXIS":"6925.360"},{"MEAN_MOTION":"15.08340186","DECAY_DATE":null,"REV_AT_EPOCH":"9406","OBJECT_ID":"2020-019AJ","TLE_LINE2":"2 45392  52.9944 322.6123 0001663  84.3210 275.7968 15.08340186 94060","OBJECT_NAME":"STARLINK-1290","MEAN_ELEMENT_THEORY":"SGP4","RCS_SIZE":"LARGE","LAUNCH_DATE":"2020-03-18","FILE":"3224952","RA_OF_ASC_NODE":"322.6123","TLE_LINE1":"1 45392U 20019AJ  21330.96666304  .00004052  00000-0  27618-3 0  9992","SITE":"AFETR","GP_ID":"190557434","MEAN_ANOMALY":"275.7968","CLASSIFICATION_TYPE":"U","EPOCH":"2021-11-26T23:11:59.686656","COUNTRY_CODE":"US","BSTAR":"0.00027618000000","MEAN_MOTION_DDOT":"0.0000000000000","ECCENTRICITY":"0.00016630","EPHEMERIS_TYPE":"0","SEMIMAJOR_AXIS":"6919.409","OBJECT_TYPE":"PAYLOAD","MEAN_MOTION_DOT":"0.00004052","CENTER_NAME":"EARTH","ARG_OF_PERICENTER":"84.3210","REF_FRAME":"TEME","ELEMENT_SET_NO":"999","TIME_SYSTEM":"UTC","APOAPSIS":"542.424","INCLINATION":"52.9944","NORAD_CAT_ID":"45392","PERIAPSIS":"540.123","PERIOD":"95.469"},{"ECCENTRICITY":"0.00013760","EPHEMERIS_TYPE":"0","SEMIMAJOR_AXIS":"6925.381","OBJECT_TYPE":"PAYLOAD","MEAN_MOTION_DOT":"0.00000677","CENTER_NAME":"EARTH","ELEMENT_SET_NO":"999","APOAPSIS":"548.199","TIME_SYSTEM":"UTC","ARG_OF_PERICENTER":"85.1267","REF_FRAME":"TEME","INCLINATION":"53.0541","NORAD_CAT_ID":"45393","PERIOD":"95.593","PERIAPSIS":"546.293","DECAY_DATE":null,"OBJECT_ID":"2020-019AK","REV_AT_EPOCH":"9404","MEAN_MOTION":"15.06389362","TLE_LINE2":"2 45393  53.0541 327.4881 0001376  85.1267 274.9879 15.06389362 94049","OBJECT_NAME":"STARLINK-1291","FILE":"3224952","LAUNCH_DATE":"2020-03-18","RA_OF_ASC_NODE":"327.4881","MEAN_ELEMENT_THEORY":"SGP4","RCS_SIZE":"LARGE","TLE_LINE1":"1 45393U 20019AK  21330.73510562  .00000677  00000-0  64358-4 0  9994","SITE":"AFETR","MEAN_ANOMALY":"274.9879","GP_ID":"190557681","CLASSIFICATION_TYPE":"U","EPOCH":"2021-11-26T17:38:33.125568","MEAN_MOTION_DDOT":"0.0000000000000","COUNTRY_CODE":"US","BSTAR":"0.00006435800000"},{"MEAN_ANOMALY":"308.2663","GP_ID":"190557937","MEAN_MOTION_DDOT":"0.0000000000000","COUNTRY_CODE":"US","BSTAR":"0.00008864200000","CLASSIFICATION_TYPE":"U","EPOCH":"2021-11-26T23:07:37.529184","TLE_LINE2":"2 45394  53.0557 326.4641 0001855  51.8493 308.2663 15.06398465 94050","OBJECT_NAME":"STARLINK-1292","DECAY_DATE":null,"REV_AT_EPOCH":"9405","OBJECT_ID":"2020-019AL","MEAN_MOTION":"15.06398465","TLE_LINE1":"1 45394U 20019AL  21330.96362881  .00001039  00000-0  88642-4 0  9994","SITE":"AFETR","FILE":"3224952","LAUNCH_DATE":"2020-03-18","RA_OF_ASC_NODE":"326.4641","MEAN_ELEMENT_THEORY":"SGP4","RCS_SIZE":"LARGE","ELEMENT_SET_NO":"999","APOAPSIS":"548.503","TIME_SYSTEM":"UTC","ARG_OF_PERICENTER":"51.8493","REF_FRAME":"TEME","PERIAPSIS":"545.934","PERIOD":"95.592","INCLINATION":"53.0557","NORAD_CAT_ID":"45394","SEMIMAJOR_AXIS":"6925.353","ECCENTRICITY":"0.00018550","EPHEMERIS_TYPE":"0","CENTER_NAME":"EARTH","OBJECT_TYPE":"PAYLOAD","MEAN_MOTION_DOT":"0.00001039"},{"EPHEMERIS_TYPE":"0","ECCENTRICITY":"0.00018650","SEMIMAJOR_AXIS":"6925.377","MEAN_MOTION_DOT":"0.00001577","OBJECT_TYPE":"PAYLOAD","CENTER_NAME":"EARTH","APOAPSIS":"548.533","TIME_SYSTEM":"UTC","ELEMENT_SET_NO":"999","REF_FRAME":"TEME","ARG_OF_PERICENTER":"57.3236","NORAD_CAT_ID":"45395","INCLINATION":"53.0556","PERIAPSIS":"545.950","PERIOD":"95.593","REV_AT_EPOCH":"9346","OBJECT_ID":"2020-019AM","DECAY_DATE":null,"MEAN_MOTION":"15.06390797","OBJECT_NAME":"STARLINK-1297","TLE_LINE2":"2 45395  53.0556 327.5277 0001865  57.3236 302.7933 15.06390797 93467","RA_OF_ASC_NODE":"327.5277","LAUNCH_DATE":"2020-03-18","FILE":"3224952","RCS_SIZE":"LARGE","MEAN_ELEMENT_THEORY":"SGP4","SITE":"AFETR","TLE_LINE1":"1 45395U 20019AM  21330.72775426  .00001577  00000-0  12479-3 0  9993","MEAN_ANOMALY":"302.7933","GP_ID":"190556685","EPOCH":"2021-11-26T17:27:57.968064","CLASSIFICATION_TYPE":"U","MEAN_MOTION_DDOT":"0.0000000000000","BSTAR":"0.00012479000000","COUNTRY_CODE":"US"},{"SITE":"AFETR","TLE_LINE1":"1 45396U 20019AN  21330.70930109  .00001773  00000-0  13786-3 0  9993","RCS_SIZE":"LARGE","MEAN_ELEMENT_THEORY":"SGP4","RA_OF_ASC_NODE":"327.6026","FILE":"3224952","LAUNCH_DATE":"2020-03-18","OBJECT_NAME":"STARLINK-1303","TLE_LINE2":"2 45396  53.0547 327.6026 0001862  56.9579 303.1589 15.06403635 93999","MEAN_MOTION":"15.06403635","OBJECT_ID":"2020-019AN","REV_AT_EPOCH":"9399","DECAY_DATE":null,"BSTAR":"0.00013786000000","COUNTRY_CODE":"US","MEAN_MOTION_DDOT":"0.0000000000000","EPOCH":"2021-11-26T17:01:23.614176","CLASSIFICATION_TYPE":"U","GP_ID":"190556935","MEAN_ANOMALY":"303.1589","CENTER_NAME":"EARTH","MEAN_MOTION_DOT":"0.00001773","OBJECT_TYPE":"PAYLOAD","SEMIMAJOR_AXIS":"6925.337","EPHEMERIS_TYPE":"0","ECCENTRICITY":"0.00018620","PERIOD":"95.592","PERIAPSIS":"545.913","NORAD_CAT_ID":"45396","INCLINATION":"53.0547","REF_FRAME":"TEME","ARG_OF_PERICENTER":"56.9579","TIME_SYSTEM":"UTC","APOAPSIS":"548.492","ELEMENT_SET_NO":"999"},{"MEAN_MOTION_DOT":"0.00001762","OBJECT_TYPE":"PAYLOAD","CENTER_NAME":"EARTH","EPHEMERIS_TYPE":"0","ECCENTRICITY":"0.00017980","SEMIMAJOR_AXIS":"6925.327","NORAD_CAT_ID":"45397","INCLINATION":"53.0548","PERIAPSIS":"545.947","PERIOD":"95.592","REF_FRAME":"TEME","ARG_OF_PERICENTER":"60.2469","TIME_SYSTEM":"UTC","APOAPSIS":"548.437","ELEMENT_SET_NO":"999","RCS_SIZE":"LARGE","MEAN_ELEMENT_THEORY":"SGP4","RA_OF_ASC_NODE":"327.5524","FILE":"3224952","LAUNCH_DATE":"2020-03-18","TLE_LINE1":"1 45397U 20019AP  21330.72035023  .00001762  00000-0  13717-3 0  9999","SITE":"AFETR","MEAN_MOTION":"15.06406983","REV_AT_EPOCH":"9410","OBJECT_ID":"2020-019AP","DECAY_DATE":null,"OBJECT_NAME":"STARLINK-1307","TLE_LINE2":"2 45397  53.0548 327.5524 0001798  60.2469 299.8699 15.06406983 94103","CLASSIFICATION_TYPE":"U","EPOCH":"2021-11-26T17:17:18.259872","BSTAR":"0.00013717000000","COUNTRY_CODE":"US","MEAN_MOTION_DDOT":"0.0000000000000","GP_ID":"190558181","MEAN_ANOMALY":"299.8699"},{"TLE_LINE2":"2 45398  53.0546 327.2852 0001733  58.1651 301.9507 15.06395486 94042","OBJECT_NAME":"STARLINK-1312","DECAY_DATE":null,"OBJECT_ID":"2020-019AQ","REV_AT_EPOCH":"9404","MEAN_MOTION":"15.06395486","TLE_LINE1":"1 45398U 20019AQ  21330.77933675  .00001556  00000-0  12338-3 0  9994","SITE":"AFETR","FILE":"3224952","LAUNCH_DATE":"2020-03-18","RA_OF_ASC_NODE":"327.2852","MEAN_ELEMENT_THEORY":"SGP4","RCS_SIZE":"LARGE","MEAN_ANOMALY":"301.9507","GP_ID":"190558437","MEAN_MOTION_DDOT":"0.0000000000000","COUNTRY_CODE":"US","BSTAR":"0.00012338000000","CLASSIFICATION_TYPE":"U","EPOCH":"2021-11-26T18:42:14.695200","SEMIMAJOR_AXIS":"6925.362","ECCENTRICITY":"0.00017330","EPHEMERIS_TYPE":"0","CENTER_NAME":"EARTH","OBJECT_TYPE":"PAYLOAD","MEAN_MOTION_DOT":"0.00001556","ELEMENT_SET_NO":"999","APOAPSIS":"548.428","TIME_SYSTEM":"UTC","ARG_OF_PERICENTER":"58.1651","REF_FRAME":"TEME","PERIAPSIS":"546.027","PERIOD":"95.592","INCLINATION":"53.0546","NORAD_CAT_ID":"45398"},{"ELEMENT_SET_NO":"999","TIME_SYSTEM":"UTC","APOAPSIS":"548.307","ARG_OF_PERICENTER":"63.5427","REF_FRAME":"TEME","PERIAPSIS":"546.143","PERIOD":"95.592","INCLINATION":"53.0544","NORAD_CAT_ID":"45399","SEMIMAJOR_AXIS":"6925.360","ECCENTRICITY":"0.00015630","EPHEMERIS_TYPE":"0","CENTER_NAME":"EARTH","OBJECT_TYPE":"PAYLOAD","MEAN_MOTION_DOT":"0.00001019","GP_ID":"190557185","MEAN_ANOMALY":"296.5722","MEAN_MOTION_DDOT":"0.0000000000000","COUNTRY_CODE":"US","BSTAR":"0.00008728000000","EPOCH":"2021-11-26T16:30:52.843104","CLASSIFICATION_TYPE":"U","TLE_LINE2":"2 45399  53.0544 317.6963 0001563  63.5427 296.5722 15.06396285 94225","OBJECT_NAME":"STARLINK-1255","DECAY_DATE":null,"REV_AT_EPOCH":"9422","OBJECT_ID":"2020-019AR","MEAN_MOTION":"15.06396285","SITE":"AFETR","TLE_LINE1":"1 45399U 20019AR  21330.68811161  .00001019  00000-0  87280-4 0  9993","LAUNCH_DATE":"2020-03-18","FILE":"3224952","RA_OF_ASC_NODE":"317.6963","MEAN_ELEMENT_THEORY":"SGP4","RCS_SIZE":"LARGE"}];
